QIANFAN-73              
1 63159U 25046A   25293.27871306  .00000164  00000+0  23571-3 0  9997
2 63159  88.9785 325.5593 0012896 279.2293  80.7399 13.50971011 40191
QIANFAN-74              
1 63160U 25046B   25293.26224567  .00000155  00000+0  22217-3 0  9995
2 63160  88.9785 325.4494 0002147  97.9768 262.1627 13.50972855 40256
QIANFAN-75              
1 63161U 25046C   25293.24980639  .00000201  00000+0  29332-3 0  9990
2 63161  88.9785 325.6835 0014025 282.6885  77.2698 13.50981025 40127
QIANFAN-76              
1 63162U 25046D   25293.24579153  .00000098  00000+0  13326-3 0  9996
2 63162  88.9785 325.6648 0011573 283.6404  76.3458 13.50972638 40138
QIANFAN-77              
1 63163U 25046E   25293.28880012  .00000421  00000+0  29697-3 0  9998
2 63163  88.9782 324.1064 0012826 243.1816 116.8050 13.96074475 40996
QIANFAN-78              
1 63164U 25046F   25293.28696230  .00000161  00000+0  23152-3 0  9997
2 63164  88.9786 325.5251 0012978 285.9682  74.0039 13.50973380 40217
QIANFAN-79              
1 63165U 25046G   25293.24158064  .00000183  00000+0  26500-3 0  9996
2 63165  88.9790 325.6352 0012659 284.1585  75.8159 13.50972688 40150
QIANFAN-80              
1 63166U 25046H   25293.25815086  .00000191  00000+0  27782-3 0  9994
2 63166  88.9786 325.3418 0011667 289.4177  70.5713 13.50973510 40310
